NORAD_CAT_ID,OBJECT_NAME,OBJECT_TYPE,EPOCH,MEAN_MOTION,ECCENTRICITY,INCLINATION,RA_OF_ASC_NODE,ARG_OF_PERICENTER,MEAN_ANOMALY,BSTAR,MEAN_MOTION_DOT,MEAN_MOTION_DDOT,TLE_LINE0,TLE_LINE1,TLE_LINE2,SEMIMAJOR_AXIS,PERIOD,APOGEE,PERIGEE,DECAYED
51882.0,STARLINK-3570,PAYLOAD,2024-06-14 14:19:17,15.0883031,0.0001238,53.2187,321.1956,83.2531,276.8602,4.574e-05,4.4e-06,0.0,0 STARLINK-3570,1 51882U 22022AG  24166.59673012  .00000440  00000-0  45740-4 0  9996,2 51882  53.2187 321.1956 0001238  83.2531 276.8602 15.08830310127724,6917.91,95.438,540.631,538.919,0.0
51882.0,STARLINK-3570,PAYLOAD,2024-06-14 17:30:03,15.0883569,0.0001281,53.2189,320.6037,92.65,267.4639,8.3998e-05,1.049e-05,0.0,0 STARLINK-3570,1 51882U 22022AG  24166.72920643  .00001049  00000-0  83998-4 0  9999,2 51882  53.2189 320.6037 0001281  92.6500 267.4639 15.08835690127742,6917.894,95.438,540.645,538.872,0.0
51882.0,STARLINK-3570,PAYLOAD,2024-06-15 14:10:04,15.08838026,0.0001886,53.2198,316.7368,88.8284,271.2924,1.4451e-05,-5.8e-07,0.0,0 STARLINK-3570,1 51882U 22022AG  24167.59032973 -.00000058  00000-0  14451-4 0  9993,2 51882  53.2198 316.7368 0001886  88.8284 271.2924 15.08838026127872,6917.886,95.438,541.056,538.447,0.0
51882.0,STARLINK-3570,PAYLOAD,2024-06-15 18:56:13,15.08839333,0.000144,53.2199,315.8456,92.3877,267.728,3.3503e-05,2.45e-06,0.0,0 STARLINK-3570,1 51882U 22022AG  24167.78904818  .00000245  00000-0  33503-4 0  9996,2 51882  53.2199 315.8456 0001440  92.3877 267.7280 15.08839333127906,6917.882,95.438,540.744,538.751,0.0
51882.0,STARLINK-3570,PAYLOAD,2024-06-16 14:00:51,15.08835465,0.0001536,53.2185,312.2718,70.7831,289.3327,0.00011637,1.564e-05,0.0,0 STARLINK-3570,1 51882U 22022AG  24168.58393020  .00001564  00000-0  11637-3 0  9990,2 51882  53.2185 312.2718 0001536  70.7831 289.3327 15.08835465128027,6917.894,95.438,540.822,538.697,0.0
51882.0,STARLINK-3570,PAYLOAD,2024-06-16 18:47:00,15.08841699,0.000128,53.2184,311.3826,86.6216,273.4922,0.00010146,1.327e-05,0.0,0 STARLINK-3570,1 51882U 22022AG  24168.78264648  .00001327  00000-0  10146-3 0  9996,2 51882  53.2184 311.3826 0001280  86.6216 273.4922 15.08841699128059,6917.875,95.437,540.626,538.855,0.0
51882.0,STARLINK-3570,PAYLOAD,2024-06-17 18:37:47,15.08842632,0.0001063,53.2171,306.9205,106.2368,253.8741,9.9441e-05,1.295e-05,0.0,0 STARLINK-3570,1 51882U 22022AG  24169.77624414  .00001295  00000-0  99441-4 0  9997,2 51882  53.2171 306.9205 0001063 106.2368 253.8741 15.08842632128208,6917.872,95.437,540.473,539.002,0.0
51882.0,STARLINK-3570,PAYLOAD,2024-06-18 15:17:48,15.08843148,0.0001704,53.2182,303.0539,97.2681,262.8505,0.00017383,2.48e-05,0.0,0 STARLINK-3570,1 51882U 22022AG  24170.63736650  .00002480  00000-0  17383-3 0  9991,2 51882  53.2182 303.0539 0001704  97.2681 262.8505 15.08843148128332,6917.871,95.437,540.915,538.557,0.0
51882.0,STARLINK-3570,PAYLOAD,2024-06-19 02:25:30,15.0884738,0.0001473,53.2186,300.9739,98.5545,261.5614,0.00014769,2.064e-05,0.0,0 STARLINK-3570,1 51882U 22022AG  24171.10104311  .00002064  00000-0  14769-3 0  9990,2 51882  53.2186 300.9739 0001473  98.5545 261.5614 15.08847380128407,6917.858,95.437,540.742,538.704,0.0
51882.0,STARLINK-3570,PAYLOAD,2024-06-19 13:33:12,15.08830593,0.0001631,53.2191,298.8946,87.4471,272.6708,-2.8071e-05,-7.35e-06,0.0,0 STARLINK-3570,1 51882U 22022AG  24171.56473357 -.00000735  00000-0 -28071-4 0  9996,2 51882  53.2191 298.8946 0001631  87.4471 272.6708 15.08830593128471,6917.909,95.438,540.902,538.646,0.0
51882.0,STARLINK-3570,PAYLOAD,2024-06-19 15:08:36,15.08833023,0.0001663,53.2192,298.5973,90.5391,269.5791,2.8187e-06,-2.43e-06,0.0,0 STARLINK-3570,1 51882U 22022AG  24171.63097268 -.00000243  00000-0  28187-5 0  9999,2 51882  53.2192 298.5973 0001663  90.5391 269.5791 15.08833023128489,6917.902,95.438,540.917,538.616,0.0
51882.0,STARLINK-3570,PAYLOAD,2024-06-20 13:23:59,15.08840189,0.0001323,53.2181,294.4331,97.0279,263.0863,0.0001314,1.804e-05,0.0,0 STARLINK-3570,1 51882U 22022AG  24172.55833025  .00001804  00000-0  13140-3 0  9994,2 51882  53.2181 294.4331 0001323  97.0279 263.0863 15.08840189128626,6917.88,95.438,540.66,538.83,0.0
51882.0,STARLINK-3570,PAYLOAD,2024-06-21 00:31:41,15.08850867,0.0001293,53.2193,292.3524,95.0933,265.0206,0.00019106,2.755e-05,0.0,0 STARLINK-3570,1 51882U 22022AG  24173.02200425  .00002755  00000-0  19106-3 0  9993,2 51882  53.2193 292.3524 0001293  95.0933 265.0206 15.08850867128695,6917.847,95.437,540.607,538.818,0.0
51882.0,STARLINK-3570,PAYLOAD,2024-06-21 13:14:47,15.08835047,0.0001427,53.2189,289.9739,95.2392,264.8763,8.721e-05,1.1e-05,0.0,0 STARLINK-3570,1 51882U 22022AG  24173.55193463  .00001100  00000-0  87210-4 0  9999,2 51882  53.2189 289.9739 0001427  95.2392 264.8763 15.08835047128777,6917.896,95.438,540.748,538.773,0.0
51882.0,STARLINK-3570,PAYLOAD,2024-06-21 14:50:10,15.08836257,0.0001359,53.2184,289.6769,90.5341,269.5807,7.8684e-05,9.64e-06,0.0,0 STARLINK-3570,1 51882U 22022AG  24173.61817437  .00000964  00000-0  78684-4 0  9992,2 51882  53.2184 289.6769 0001359  90.5341 269.5807 15.08836257128784,6917.892,95.438,540.697,538.817,0.0
51882.0,STARLINK-3570,PAYLOAD,2024-06-22 13:05:34,15.08841016,0.0001369,53.2188,285.5135,99.0341,261.0807,0.00020599,2.992e-05,0.0,0 STARLINK-3570,1 51882U 22022AG  24174.54553433  .00002992  00000-0  20599-3 0  9992,2 51882  53.2188 285.5135 0001369  99.0341 261.0807 15.08841016128927,6917.877,95.437,540.689,538.795,0.0
51882.0,STARLINK-3570,PAYLOAD,2024-06-22 14:40:57,15.08840717,0.0001355,53.2187,285.2163,98.1756,261.939,0.00023176,3.403e-05,0.0,0 STARLINK-3570,1 51882U 22022AG  24174.61177498  .00003403  00000-0  23176-3 0  9995,2 51882  53.2187 285.2163 0001355  98.1756 261.9390 15.08840717128933,6917.878,95.438,540.681,538.806,0.0
51882.0,STARLINK-3570,PAYLOAD,2024-06-23 12:56:21,15.08846988,0.0001226,53.2173,281.0524,92.6648,267.4484,0.00028454,4.244e-05,0.0,0 STARLINK-3570,1 51882U 22022AG  24175.53913329  .00004244  00000-0  28454-3 0  9996,2 51882  53.2173 281.0524 0001226  92.6648 267.4484 15.08846988129076,6917.859,95.437,540.572,538.876,0.0
51882.0,STARLINK-3570,PAYLOAD,2024-06-23 17:42:30,15.0884824,0.0001224,53.2172,280.1604,93.3463,266.7669,0.00027663,4.118e-05,0.0,0 STARLINK-3570,1 51882U 22022AG  24175.73785222  .00004118  00000-0  27663-3 0  9998,2 51882  53.2172 280.1604 0001224  93.3463 266.7669 15.08848240129109,6917.855,95.437,540.567,538.873,0.0
51882.0,STARLINK-3570,PAYLOAD,2024-06-24 12:47:07,15.08845345,0.0001274,53.2174,276.5909,93.372,266.7418,0.00012649,1.726e-05,0.0,0 STARLINK-3570,1 51882U 22022AG  24176.53273129  .00001726  00000-0  12649-3 0  9995,2 51882  53.2174 276.5909 0001274  93.3720 266.7418 15.08845345129227,6917.864,95.437,540.61,538.848,0.0
51882.0,STARLINK-3570,PAYLOAD,2024-06-24 14:22:31,15.08846709,0.000125,53.2169,276.2933,86.9908,273.1227,0.00014646,2.044e-05,0.0,0 STARLINK-3570,1 51882U 22022AG  24176.59897068  .00002044  00000-0  14646-3 0  9998,2 51882  53.2169 276.2933 0001250  86.9908 273.1227 15.08846709129231,6917.86,95.437,540.59,538.86,0.0
51882.0,STARLINK-3570,PAYLOAD,2024-06-25 12:37:55,15.08839919,0.0001408,53.2174,272.1306,77.3355,282.7795,2.2034e-05,6.3e-07,0.0,0 STARLINK-3570,1 51882U 22022AG  24177.52633511  .00000063  00000-0  22034-4 0  9993,2 51882  53.2174 272.1306 0001408  77.3355 282.7795 15.08839919129377,6917.881,95.438,540.72,538.772,0.0
51882.0,STARLINK-3570,PAYLOAD,2024-06-26 10:53:18,15.08844863,0.0001252,53.2167,267.9676,86.8034,273.3101,0.000143,1.989e-05,0.0,0 STARLINK-3570,1 51882U 22022AG  24178.45369149  .00001989  00000-0  14300-3 0  9993,2 51882  53.2167 267.9676 0001252  86.8034 273.3101 15.08844863129514,6917.866,95.437,540.597,538.864,0.0
51882.0,STARLINK-3570,PAYLOAD,2024-06-27 12:19:29,15.08834136,0.0001348,53.2184,263.2105,91.4303,268.6844,5.2943e-05,5.55e-06,0.0,0 STARLINK-3570,1 51882U 22022AG  24179.51353825  .00000555  00000-0  52943-4 0  9999,2 51882  53.2184 263.2105 0001348  91.4303 268.6844 15.08834136129676,6917.898,95.438,540.696,538.831,0.0
51882.0,STARLINK-3570,PAYLOAD,2024-06-27 17:05:39,15.08828774,0.0001544,53.2179,262.318,115.6118,244.5033,0.00013435,1.85e-05,0.0,0 STARLINK-3570,1 51882U 22022AG  24179.71225885  .00001850  00000-0  13435-3 0  9996,2 51882  53.2179 262.3180 0001544 115.6118 244.5033 15.08828774129702,6917.915,95.438,540.848,538.712,0.0
51882.0,STARLINK-3570,PAYLOAD,2024-06-28 12:10:15,15.08843986,0.0001385,53.2173,258.7496,88.2844,271.8307,8.9216e-05,1.132e-05,0.0,0 STARLINK-3570,1 51882U 22022AG  24180.50712260  .00001132  00000-0  89216-4 0  9997,2 51882  53.2173 258.7496 0001385  88.2844 271.8307 15.08843986129821,6917.868,95.437,540.691,538.775,0.0
51882.0,STARLINK-3570,PAYLOAD,2024-06-28 16:56:25,15.08838627,0.0001252,53.2171,257.8585,87.7264,272.3872,3.026e-05,1.94e-06,0.0,0 STARLINK-3570,1 51882U 22022AG  24180.70584946  .00000194  00000-0  30260-4 0  9999,2 51882  53.2171 257.8585 0001252  87.7264 272.3872 15.08838627129853,6917.885,95.438,540.616,538.883,0.0
51882.0,STARLINK-3570,PAYLOAD,2024-06-29 12:01:04,15.08818007,0.0001325,53.2169,254.2905,90.5242,269.5902,-6.0146e-05,-1.244e-05,0.0,0 STARLINK-3570,1 51882U 22022AG  24181.50074719 -.00001244  00000-0 -60146-4 0  9995,2 51882  53.2169 254.2905 0001325  90.5242 269.5902 15.08818007129971,6917.948,95.439,540.729,538.896,0.0
51882.0,STARLINK-3570,PAYLOAD,2024-06-29 21:33:22,15.08832597,0.0001174,53.2164,252.5062,96.1049,264.0077,-9.4831e-06,-4.39e-06,0.0,0 STARLINK-3570,1 51882U 22022AG  24181.89818034 -.00000439  00000-0 -94831-5 0  9997,2 51882  53.2164 252.5062 0001174  96.1049 264.0077 15.08832597130032,6917.903,95.438,540.58,538.956,0.0
51882.0,STARLINK-3570,PAYLOAD,2024-06-30 05:30:18,15.08836087,0.0001272,53.218,251.0203,87.6149,272.4989,-0.0001712,-3.011e-05,0.0,0 STARLINK-3570,1 51882U 22022AG  24182.22938365 -.00003011  00000-0 -17120-3 0  9998,2 51882  53.2180 251.0203 0001272  87.6149 272.4989 15.08836087130084,6917.892,95.438,540.637,538.877,0.0
